NORAD_CAT_ID,OBJECT_NAME,OBJECT_TYPE,EPOCH,MEAN_MOTION,ECCENTRICITY,INCLINATION,RA_OF_ASC_NODE,ARG_OF_PERICENTER,MEAN_ANOMALY,BSTAR,MEAN_MOTION_DOT,MEAN_MOTION_DDOT,TLE_LINE0,TLE_LINE1,TLE_LINE2,SEMIMAJOR_AXIS,PERIOD,APOGEE,PERIGEE,DECAYED
53006.0,STARLINK-4290,PAYLOAD,2022-08-15 14:00:01,15.68796413,0.0001038,53.2174,186.4303,35.7884,308.1374,-0.010031,-0.01051478,0.0,0 STARLINK-4290,1 53006U 22076W   22227.58334491 -.01051478  00000-0 -10031-1 0  9997,2 53006  53.2174 186.4303 0001038  35.7884 308.1374 15.68796413  1300,6740.479,91.79,363.044,361.645,0.0
53006.0,STARLINK-4290,PAYLOAD,2022-08-15 16:00:00,15.6860481,0.0001267,53.2175,186.0207,44.6665,50.1386,-0.01008,-0.0104865,0.0,0 STARLINK-4290,1 53006U 22076W   22227.66667824 -.01048650  00000-0 -10080-1 0  9997,2 53006  53.2175 186.0207 0001267  44.6665  50.1386 15.68604810  6659,6741.028,91.801,363.747,362.039,0.0
53006.0,STARLINK-4290,PAYLOAD,2022-08-15 22:00:00,15.68035947,0.0001312,53.2175,184.7933,48.6474,18.4501,-0.010326,-0.01049214,0.0,0 STARLINK-4290,1 53006U 22076W   22227.91667824 -.01049214  00000-0 -10326-1 0  9995,2 53006  53.2175 184.7933 0001312  48.6474  18.4501 15.68035947  1305,6742.659000000002,91.835,365.408,363.639,0.0
53006.0,STARLINK-4290,PAYLOAD,2022-08-16 14:00:01,15.66520548,0.0001176,53.2176,181.5269,79.0609,151.6394,-0.0110549999999999,-0.01054931,0.0,0 STARLINK-4290,1 53006U 22076W   22228.58334491 -.01054931  00000-0 -11055-1 0  9992,2 53006  53.2176 181.5269 0001176  79.0609 151.6394 15.66520548  1303,6747.005999999999,91.923,369.665,368.078,0.0
53006.0,STARLINK-4290,PAYLOAD,2022-08-16 22:00:00,15.65759036,0.0001117,53.2178,179.8957,70.2254,240.9085,-0.011347,-0.01050334,0.0,0 STARLINK-4290,1 53006U 22076W   22228.91667824 -.01050334  00000-0 -11347-1 0  9995,2 53006  53.2178 179.8957 0001117  70.2254 240.9085 15.65759036  1307,6749.194,91.968,371.81300000000016,370.305,0.0
53006.0,STARLINK-4290,PAYLOAD,2022-08-17 14:00:01,15.64238786,0.0001234,53.2175,176.64,60.0047,49.2583,-0.012039,-0.01048572,0.0,0 STARLINK-4290,1 53006U 22076W   22229.58334491 -.01048572  00000-0 -12039-1 0  9990,2 53006  53.2175 176.6400 0001234  60.0047  49.2583 15.64238786  1305,6753.566,92.058,376.264,374.597,0.0
53006.0,STARLINK-4290,PAYLOAD,2022-08-18 08:00:01,15.62529367,0.0001001,53.2172,172.9876,74.7911,298.0012,-0.012851,-0.01062384,0.0,0 STARLINK-4290,1 53006U 22076W   22230.33334491 -.01062384  00000-0 -12851-1 0  9994,2 53006  53.2172 172.9876 0001001  74.7911 298.0012 15.62529367  7079,6758.491,92.158,381.032,379.679,0.0
53006.0,STARLINK-4290,PAYLOAD,2022-08-18 14:00:01,15.61961318,0.0001052,53.2175,171.7699,66.9438,272.6663,-0.0131919999999999,-0.0106619,0.0,0 STARLINK-4290,1 53006U 22076W   22230.58334491 -.01066190  00000-0 -13192-1 0  9999,2 53006  53.2175 171.7699 0001052  66.9438 272.6663 15.61961318  1300,6760.129,92.192,382.705,381.283,0.0
53006.0,STARLINK-4290,PAYLOAD,2022-08-18 22:00:00,15.6120161,0.0001153,53.2176,170.1502,63.3615,351.2056,-0.013572,-0.01065014,0.0,0 STARLINK-4290,1 53006U 22076W   22230.91667824 -.01065014  00000-0 -13572-1 0  9991,2 53006  53.2176 170.1502 0001153  63.3615 351.2056 15.61201610  1309,6762.321999999999,92.237,384.967,383.407,0.0
53006.0,STARLINK-4290,PAYLOAD,2022-08-19 06:00:00,15.60437737,0.0001318,53.2177,168.5341,58.919,69.6933,-0.0138729999999999,-0.01057629,0.0,0 STARLINK-4290,1 53006U 22076W   22231.25001157 -.01057629  00000-0 -13873-1 0  9997,2 53006  53.2177 168.5341 0001318  58.9190  69.6933 15.60437737  7213,6764.529,92.282,387.285,385.502,0.0
53006.0,STARLINK-4290,PAYLOAD,2022-08-19 14:00:01,15.59681666,0.0001272,53.2177,166.9162,68.0064,133.7376,-0.0143639999999999,-0.01063075,0.0,0 STARLINK-4290,1 53006U 22076W   22231.58334491 -.01063075  00000-0 -14364-1 0  9991,2 53006  53.2177 166.9162 0001272  68.0064 133.7376 15.59681666  1305,6766.715,92.327,389.44,387.719,0.0
53006.0,STARLINK-4290,PAYLOAD,2022-08-19 20:00:01,15.59111569,0.0001309,53.2178,165.7052,70.0407,95.953,-0.014653,-0.01061216,0.0,0 STARLINK-4290,1 53006U 22076W   22231.83334491 -.01061216  00000-0 -14653-1 0  9995,2 53006  53.2178 165.7052 0001309  70.0407  95.9530 15.59111569  7303,6768.364000000001,92.36,391.115,389.343,0.0
53006.0,STARLINK-4290,PAYLOAD,2022-08-20 14:00:01,15.57401884,0.0001135,53.2175,162.0792,60.2808,355.3832,-0.015628,-0.01060667,0.0,0 STARLINK-4290,1 53006U 22076W   22232.58334491 -.01060667  00000-0 -15628-1 0  9990,2 53006  53.2175 162.0792 0001135  60.2808 355.3832 15.57401884  7425,6773.316999999999,92.462,395.95,394.413,0.0
53006.0,STARLINK-4290,PAYLOAD,2022-08-20 22:00:00,15.5664325,0.0001354,53.2175,160.4709,56.6449,68.4996,-0.016096,-0.01061669,0.0,0 STARLINK-4290,1 53006U 22076W   22232.91667824 -.01061669  00000-0 -16096-1 0  9999,2 53006  53.2175 160.4709 0001354  56.6449  68.4996 15.56643250  1306,6775.517,92.507,398.3,396.465,0.0
53006.0,STARLINK-4290,PAYLOAD,2022-08-21 06:00:00,15.55879174,0.0001323,53.2173,158.8656,65.7476,127.966,-0.016422,-0.01053455,0.0,0 STARLINK-4290,1 53006U 22076W   22233.25001157 -.01053455  00000-0 -16422-1 0  9995,2 53006  53.2173 158.8656 0001323  65.7476 127.9660 15.55879174  7538,6777.735,92.552,400.497,398.703,0.0
53006.0,STARLINK-4290,PAYLOAD,2022-08-21 14:00:01,15.55123319,0.0001175,53.2175,157.2586,75.2294,186.14,-0.017,-0.01059667,0.0,0 STARLINK-4290,1 53006U 22076W   22233.58334491 -.01059667  00000-0 -17000-1 0  9995,2 53006  53.2175 157.2586 0001175  75.2294 186.1400 15.55123319  1305,6779.931,92.597,402.593,401.0,0.0
53006.0,STARLINK-4290,PAYLOAD,2022-08-21 22:00:00,15.54365466,0.0001185,53.2176,155.656,61.9739,266.1376,-0.017526,-0.01062052,0.0,0 STARLINK-4290,1 53006U 22076W   22233.91667824 -.01062052  00000-0 -17526-1 0  9996,2 53006  53.2176 155.6560 0001185  61.9739 266.1376 15.54365466  1308,6782.135,92.642,404.80300000000005,403.196,0.0
53006.0,STARLINK-4290,PAYLOAD,2022-08-22 12:00:00,15.53036245,0.0001099,53.2175,152.8545,65.2386,287.478,-0.018403,-0.01062124,0.0,0 STARLINK-4290,1 53006U 22076W   22234.50001157 -.01062124  00000-0 -18403-1 0  9998,2 53006  53.2175 152.8545 0001099  65.2386 287.4780 15.53036245  1302,6786.004,92.722,408.615,407.12300000000016,0.0
53006.0,STARLINK-4290,PAYLOAD,2022-08-22 22:00:00,15.5208489,0.0001439,53.2177,150.8576,56.0189,106.847,-0.018971,-0.01058185,0.0,0 STARLINK-4290,1 53006U 22076W   22234.91667824 -.01058185  00000-0 -18971-1 0  9994,2 53006  53.2177 150.8576 0001439  56.0189 106.8470 15.52084890  7789,6788.776999999999,92.778,411.619,409.665,0.0
53006.0,STARLINK-4290,PAYLOAD,2022-08-23 14:00:01,15.50438394,0.000134,53.2174,147.666,72.4156,215.7421,-0.011339,-0.00608204,0.0,0 STARLINK-4290,1 53006U 22076W   22235.58334491 -.00608204  00000-0 -11339-1 0  9992,2 53006  53.2174 147.6660 0001340  72.4156 215.7421 15.50438394  1309,6793.581999999999,92.877,416.357,414.537,0.0
53006.0,STARLINK-4290,PAYLOAD,2022-08-23 20:00:01,15.49991683,0.0001414,53.2176,146.4712,68.5674,175.6412,-0.0029590999999999,-0.00165522,0.0,0 STARLINK-4290,1 53006U 22076W   22235.83334491 -.00165522  00000-0 -29591-2 0  9991,2 53006  53.2176 146.4712 0001414  68.5674 175.6412 15.49991683  7931,6794.887,92.904,417.713,415.792,0.0
53006.0,STARLINK-4290,PAYLOAD,2022-08-23 22:00:01,15.49892768,0.0001383,53.2176,146.0734,67.1741,282.3772,-0.0002386,-0.00013973,0.0,0 STARLINK-4290,1 53006U 22076W   22235.91668981 -.00013973  00000-0 -23860-3 0  9990,2 53006  53.2176 146.0734 0001383  67.1741 282.3772 15.49892768  1300,6795.176,92.91,417.981,416.102,0.0
53006.0,STARLINK-4290,PAYLOAD,2022-08-24 06:00:00,15.49837824,0.0001478,53.2167,144.4758,64.0956,346.1524,0.0014295,0.00081392,0.0,0 STARLINK-4290,1 53006U 22076W   22236.25001157  .00081392  00000-0  14295-2 0  9993,2 53006  53.2167 144.4758 0001478  64.0956 346.1524 15.49837824  7994,6795.337,92.913,418.206,416.198,0.0
53006.0,STARLINK-4290,PAYLOAD,2022-08-24 14:00:01,15.49856025,0.0001476999999999,53.2168,142.8791,76.0113,35.1594,0.00078523,0.00044322,0.0,0 STARLINK-4290,1 53006U 22076W   22236.58334491  .00044322  00000-0  78523-3 0  9996,2 53006  53.2168 142.8791 0001477  76.0113  35.1594 15.49856025  1306,6795.284000000002,92.912,418.153,416.145,0.0
53006.0,STARLINK-4290,PAYLOAD,2022-08-24 22:00:00,15.49897655,0.0001584,53.2172,141.2871,72.5598,99.5058,-0.00041118,-0.00023728,0.0,0 STARLINK-4290,1 53006U 22076W   22236.91667824 -.00023728  00000-0 -41118-3 0  9991,2 53006  53.2172 141.2871 0001584  72.5598  99.5058 15.49897655  1303,6795.1619999999975,92.909,418.104,415.951,0.0
53006.0,STARLINK-4290,PAYLOAD,2022-08-25 14:00:01,15.49869833,0.0001539,53.2176,138.1001,74.4209,219.4907,0.00091339,0.00051704,0.0,0 STARLINK-4290,1 53006U 22076W   22237.58334491  .00051704  00000-0  91339-3 0  9999,2 53006  53.2176 138.1001 0001539  74.4209 219.4907 15.49869833  1300,6795.244000000002,92.911,418.154,416.06300000000016,0.0
53006.0,STARLINK-4290,PAYLOAD,2022-08-25 22:00:00,15.49916474,0.0001662,53.2177,136.5083,71.0494,283.7758,-0.00052553,-0.00030197,0.0,0 STARLINK-4290,1 53006U 22076W   22237.91667824 -.00030197  00000-0 -52553-3 0  9995,2 53006  53.2177 136.5083 0001662  71.0494 283.7758 15.49916474  1301,6795.107,92.908,418.102,415.843,0.0
53006.0,STARLINK-4290,PAYLOAD,2022-08-26 14:00:01,15.49889507,0.0001583,53.2173,133.321,74.1848,42.5914,0.00082283,0.00046534,0.0,0 STARLINK-4290,1 53006U 22076W   22238.58335648  .00046534  00000-0  82283-3 0  9998,2 53006  53.2173 133.3210 0001583  74.1848  42.5914 15.49889507  1304,6795.186,92.91,418.127,415.975,0.0
53006.0,STARLINK-4290,PAYLOAD,2022-08-26 22:00:00,15.49927798,0.0001696999999999,53.2172,131.7295,70.4755,107.1746,-0.0003773999999999,-0.00021845,0.0,0 STARLINK-4290,1 53006U 22076W   22238.91667824 -.00021845  00000-0 -37740-3 0  9997,2 53006  53.2172 131.7295 0001697  70.4755 107.1746 15.49927798  1306,6795.074000000001,92.908,418.092,415.786,0.0
